{"type":"FeatureCollection","features":[{"type":"Feature","geometry":{"type":"Point","coordinates":[6.974271,50.9349698]},"properties":{"name":"Brauhaus ohne Namen","kategorie":"Kneipe","amenity":"pub","bestaetigt":false,"adresse":"Mathildenstraße 42","website":"https://www.brauhaus-ohne-namen.de/"}},{"type":"Feature","geometry":{"type":"Point","coordinates":[6.9736398,50.9386312]},"properties":{"name":"Lommerzheim","kategorie":"Kneipe","amenity":"pub","bestaetigt":true,"adresse":"Siegesstraße 18","website":"https://www.lommerzheim.koeln/"}},{"type":"Feature","geometry":{"type":"Point","coordinates":[6.977734,50.9389462]},"properties":{"name":"Arena Grill","kategorie":"Imbiss","amenity":"fast_food","bestaetigt":true,"adresse":"Constantinstraße 94","website":null}},{"type":"Feature","geometry":{"type":"Point","coordinates":[6.9753385,50.9395399]},"properties":{"name":"Cafe Especial","kategorie":"Restaurant","amenity":"restaurant","bestaetigt":true,"adresse":"Neuhöfferstraße 32","website":"https://www.cafe-especial.com/"}},{"type":"Feature","geometry":{"type":"Point","coordinates":[6.9780129,50.9389185]},"properties":{"name":"Joe Champs","kategorie":"Restaurant","amenity":"restaurant","bestaetigt":true,"adresse":"Constantinstraße 96","website":"https://deutz.joe-champs.de"}},{"type":"Feature","geometry":{"type":"Point","coordinates":[6.974829,50.9404307]},"properties":{"name":"McDonald's","kategorie":"Imbiss","amenity":"fast_food","bestaetigt":false,"adresse":"Ottoplatz 7","website":"https://www.mcdonalds.com/"}},{"type":"Feature","geometry":{"type":"Point","coordinates":[6.985952,50.9363071]},"properties":{"name":"BesteS Döner & Pizzeria","kategorie":"Imbiss","amenity":"fast_food","bestaetigt":true,"adresse":"Deutz-Kalker Straße 68","website":null}},{"type":"Feature","geometry":{"type":"Point","coordinates":[6.9722495,50.9402502]},"properties":{"name":"Mongo's","kategorie":"Restaurant","amenity":"restaurant","bestaetigt":true,"adresse":"Ottoplatz 1","website":"https://www.mongos.de/restaurants/koeln"}},{"type":"Feature","geometry":{"type":"Point","coordinates":[6.9637203,50.9554684]},"properties":{"name":"San Calogero","kategorie":"Restaurant","amenity":"restaurant","bestaetigt":true,"adresse":"Blumenthalstraße 73","website":"https://www.sancalogero.de/"}},{"type":"Feature","geometry":{"type":"Point","coordinates":[6.971946,50.9370181]},"properties":{"name":"Minsu","kategorie":"Restaurant","amenity":"restaurant","bestaetigt":false,"adresse":"Mindener Straße 2","website":"https://minsulibertas.de"}},{"type":"Feature","geometry":{"type":"Point","coordinates":[6.9976822,50.9347251]},"properties":{"name":"Sahra-Pizza","kategorie":"Restaurant","amenity":"restaurant","bestaetigt":false,"adresse":"Taunusstraße 5","website":"http://www.pizza-sahra.de"}},{"type":"Feature","geometry":{"type":"Point","coordinates":[6.976782,50.9393601]},"properties":{"name":"Vapiano","kategorie":"Restaurant","amenity":"restaurant","bestaetigt":true,"adresse":"Constantinstraße 87-89","website":"https://www.vapiano.de/"}},{"type":"Feature","geometry":{"type":"Point","coordinates":[6.9648355,50.9553537]},"properties":{"name":"Gringos","kategorie":"Restaurant","amenity":"restaurant","bestaetigt":false,"adresse":"Blumenthalstraße 87","website":null}},{"type":"Feature","geometry":{"type":"Point","coordinates":[6.9625359,50.9373536]},"properties":{"name":"Enteresan","kategorie":"Café","amenity":"cafe","bestaetigt":false,"adresse":"Frankenwerft 13","website":"http://www.pizzeria-enteresan.de"}},{"type":"Feature","geometry":{"type":"Point","coordinates":[6.962156,50.93793]},"properties":{"name":"Bier Museum","kategorie":"Kneipe","amenity":"pub","bestaetigt":false,"adresse":"Buttermarkt 39","website":"https://www.biermuseum-koeln.de"}},{"type":"Feature","geometry":{"type":"Point","coordinates":[6.9623993,50.9369857]},"properties":{"name":"Beirut","kategorie":"Restaurant","amenity":"restaurant","bestaetigt":false,"adresse":"Buttermarkt","website":"https://www.beirut-restaurant.de"}},{"type":"Feature","geometry":{"type":"Point","coordinates":[6.9624091,50.9369226]},"properties":{"name":"Rüttgers","kategorie":"Kneipe","amenity":"pub","bestaetigt":false,"adresse":"Buttermarkt","website":null}},{"type":"Feature","geometry":{"type":"Point","coordinates":[6.9625847,50.9368122]},"properties":{"name":"Trattoria Da Duo","kategorie":"Imbiss","amenity":"fast_food","bestaetigt":true,"adresse":null,"website":null}},{"type":"Feature","geometry":{"type":"Point","coordinates":[6.9627049,50.9368154]},"properties":{"name":"Söckchen Altstadtkneipe","kategorie":"Kneipe","amenity":"pub","bestaetigt":true,"adresse":"Markmannsgasse 13-15","website":null}},{"type":"Feature","geometry":{"type":"Point","coordinates":[6.962487,50.9376205]},"properties":{"name":"Haxenhaus zum Rheingarten","kategorie":"Restaurant","amenity":"restaurant","bestaetigt":true,"adresse":"Frankenwerft 19","website":"https://www.haxenhaus.de/"}},{"type":"Feature","geometry":{"type":"Point","coordinates":[6.9624967,50.9377372]},"properties":{"name":"Löwenbräu","kategorie":"Restaurant","amenity":"restaurant","bestaetigt":true,"adresse":null,"website":"https://loewenbraeu-koeln.com/"}},{"type":"Feature","geometry":{"type":"Point","coordinates":[6.9624353,50.9378393]},"properties":{"name":"Mamma Leone","kategorie":"Restaurant","amenity":"restaurant","bestaetigt":true,"adresse":"Frankenwerft","website":null}},{"type":"Feature","geometry":{"type":"Point","coordinates":[6.9623977,50.9378773]},"properties":{"name":"Luscinia","kategorie":"Restaurant","amenity":"restaurant","bestaetigt":true,"adresse":null,"website":null}},{"type":"Feature","geometry":{"type":"Point","coordinates":[6.9623895,50.9382713]},"properties":{"name":"De EX-Vertretung","kategorie":"Restaurant","amenity":"restaurant","bestaetigt":true,"adresse":null,"website":"https://exvertretung.de/"}},{"type":"Feature","geometry":{"type":"Point","coordinates":[6.962122,50.9383935]},"properties":{"name":"Gelato","kategorie":"Eisdiele","amenity":"ice_cream","bestaetigt":false,"adresse":null,"website":null}},{"type":"Feature","geometry":{"type":"Point","coordinates":[6.9620896,50.9384578]},"properties":{"name":"Im Martinswinkel","kategorie":"Restaurant","amenity":"restaurant","bestaetigt":true,"adresse":null,"website":null}},{"type":"Feature","geometry":{"type":"Point","coordinates":[6.9620657,50.9382278]},"properties":{"name":"Sonderbar","kategorie":"Bar","amenity":"bar","bestaetigt":false,"adresse":null,"website":"https://sonderbar-koeln.de/"}},{"type":"Feature","geometry":{"type":"Point","coordinates":[6.9627577,50.9369892]},"properties":{"name":"Amory am Rhein","kategorie":"Café","amenity":"cafe","bestaetigt":false,"adresse":null,"website":null}},{"type":"Feature","geometry":{"type":"Point","coordinates":[6.9784184,50.9385891]},"properties":{"name":"Subway","kategorie":"Imbiss","amenity":"fast_food","bestaetigt":true,"adresse":"Justinianstraße 16","website":"https://www.subway.com/de-de"}},{"type":"Feature","geometry":{"type":"Point","coordinates":[6.9622064,50.9377913]},"properties":{"name":"Beppo Bratu","kategorie":"Café","amenity":"cafe","bestaetigt":false,"adresse":null,"website":null}},{"type":"Feature","geometry":{"type":"Point","coordinates":[6.9624032,50.9377696]},"properties":{"name":"Zum Spanferkel","kategorie":"Imbiss","amenity":"fast_food","bestaetigt":false,"adresse":null,"website":null}},{"type":"Feature","geometry":{"type":"Point","coordinates":[6.9772843,50.9334597]},"properties":{"name":"Deutzer Asia Imbiss","kategorie":"Imbiss","amenity":"fast_food","bestaetigt":false,"adresse":"Gotenring 37","website":"https://deutzerasiaimbiss.eatbu.com/?lang=de"}},{"type":"Feature","geometry":{"type":"Point","coordinates":[6.9757428,50.9325972]},"properties":{"name":"Pizza Team","kategorie":"Imbiss","amenity":"fast_food","bestaetigt":false,"adresse":"Gotenring 48","website":"https://www.pizza-team.de/"}},{"type":"Feature","geometry":{"type":"Point","coordinates":[6.9688926,50.9372792]},"properties":{"name":"Kaiser Konstantin","kategorie":"Restaurant","amenity":"restaurant","bestaetigt":true,"adresse":"Kennedy-Ufer 1","website":"https://www.kaisercologne.de"}},{"type":"Feature","geometry":{"type":"Point","coordinates":[6.9688646,50.9375426]},"properties":{"name":"Oasis","kategorie":"Restaurant","amenity":"restaurant","bestaetigt":true,"adresse":"Kennedy-Ufer 1","website":"https://www.restaurantoasis.de/"}},{"type":"Feature","geometry":{"type":"Point","coordinates":[6.9621934,50.9378616]},"properties":{"name":"Papa Joe's Jazzlokal","kategorie":"Kneipe","amenity":"pub","bestaetigt":false,"adresse":null,"website":"https://www.papajoes.de/"}},{"type":"Feature","geometry":{"type":"Point","coordinates":[6.9621461,50.9379616]},"properties":{"name":"Biermuseum","kategorie":"Restaurant","amenity":"restaurant","bestaetigt":false,"adresse":"Buttermarkt 39","website":null}},{"type":"Feature","geometry":{"type":"Point","coordinates":[6.9622299,50.9391875]},"properties":{"name":"Dom im Stapelhaus","kategorie":"Restaurant","amenity":"restaurant","bestaetigt":false,"adresse":"Frankenwerft 35","website":"https://stapelhauskoeln.de/"}},{"type":"Feature","geometry":{"type":"Point","coordinates":[6.9765727,50.9391346]},"properties":{"name":"Latino cubana","kategorie":"Kneipe","amenity":"pub","bestaetigt":true,"adresse":"Constantinstraße 88","website":"https://www.latinocubana.de/"}},{"type":"Feature","geometry":{"type":"Point","coordinates":[6.9630423,50.9314684]},"properties":{"name":"Chino Latino","kategorie":"Restaurant","amenity":"restaurant","bestaetigt":false,"adresse":null,"website":"https://www.chinolatino.co.uk/chino-latino-cologne.html"}},{"type":"Feature","geometry":{"type":"Point","coordinates":[6.9977219,50.934909]},"properties":{"name":"Casablanca","kategorie":"Café","amenity":"cafe","bestaetigt":false,"adresse":"Taunusstraße 1","website":null}},{"type":"Feature","geometry":{"type":"Point","coordinates":[6.9975379,50.9345236]},"properties":{"name":"Humboldt","kategorie":"Restaurant","amenity":"restaurant","bestaetigt":true,"adresse":"Taunusstraße 9","website":"https://das-humboldt.de/"}},{"type":"Feature","geometry":{"type":"Point","coordinates":[6.9971825,50.9334745]},"properties":{"name":"Haus Bayer","kategorie":"Kneipe","amenity":"pub","bestaetigt":false,"adresse":null,"website":null}},{"type":"Feature","geometry":{"type":"Point","coordinates":[6.9863056,50.9359561]},"properties":{"name":"Pizza Arena","kategorie":"Restaurant","amenity":"restaurant","bestaetigt":false,"adresse":"Reitweg 2-4","website":null}},{"type":"Feature","geometry":{"type":"Point","coordinates":[6.9962206,50.9315839]},"properties":{"name":"Haus Taunus","kategorie":"Restaurant","amenity":"restaurant","bestaetigt":false,"adresse":null,"website":null}},{"type":"Feature","geometry":{"type":"Point","coordinates":[6.9968316,50.9322436]},"properties":{"name":"Marani","kategorie":"Restaurant","amenity":"restaurant","bestaetigt":true,"adresse":null,"website":"https://geo-marani.de/home-koeln/"}},{"type":"Feature","geometry":{"type":"Point","coordinates":[6.963415,50.9324671]},"properties":{"name":"Matrosengrill","kategorie":"Imbiss","amenity":"fast_food","bestaetigt":false,"adresse":"Am Schokoladenmuseum 1a","website":null}},{"type":"Feature","geometry":{"type":"Point","coordinates":[6.9623696,50.9379875]},"properties":{"name":"Bierhaus am Rhein","kategorie":"Restaurant","amenity":"restaurant","bestaetigt":true,"adresse":"Frankenwerft 27","website":"https://www.bierhaus-am-rhein.de"}},{"type":"Feature","geometry":{"type":"Point","coordinates":[6.9626452,50.9346485]},"properties":{"name":"Gangnam Style Restaurant","kategorie":"Restaurant","amenity":"restaurant","bestaetigt":false,"adresse":"Thurnmarkt 7","website":"https://gangnamstyle-restaurant.com/"}},{"type":"Feature","geometry":{"type":"Point","coordinates":[6.9865502,50.9481189]},"properties":{"name":"Asia Wok","kategorie":"Imbiss","amenity":"fast_food","bestaetigt":false,"adresse":"Ferdinandstraße 2a","website":null}},{"type":"Feature","geometry":{"type":"Point","coordinates":[6.9866391,50.9483916]},"properties":{"name":"Speed Bar","kategorie":"Imbiss","amenity":"fast_food","bestaetigt":false,"adresse":"Ferdinandstraße 1","website":null}},{"type":"Feature","geometry":{"type":"Point","coordinates":[6.9621642,50.94931]},"properties":{"name":"Kaukasia","kategorie":"Restaurant","amenity":"restaurant","bestaetigt":false,"adresse":"Clever Straße 2","website":null}},{"type":"Feature","geometry":{"type":"Point","coordinates":[6.9667214,50.9558814]},"properties":{"name":"Fioretto","kategorie":"Restaurant","amenity":"restaurant","bestaetigt":false,"adresse":"Am Zuckerberg 9","website":null}},{"type":"Feature","geometry":{"type":"Point","coordinates":[6.9970454,50.9305062]},"properties":{"name":"Bei Mello","kategorie":"Restaurant","amenity":"restaurant","bestaetigt":false,"adresse":"Esserstraße 75","website":null}},{"type":"Feature","geometry":{"type":"Point","coordinates":[6.9745144,50.9356878]},"properties":{"name":"Villa Mathilde","kategorie":"Café","amenity":"cafe","bestaetigt":false,"adresse":"Mathildenstraße 27","website":"https://www.villamathilde.de/"}},{"type":"Feature","geometry":{"type":"Point","coordinates":[6.9747786,50.9369038]},"properties":{"name":"St. Louis Café","kategorie":"Café","amenity":"cafe","bestaetigt":false,"adresse":"Deutzer Freiheit 89","website":"https://www.st-louis-cafe.de/"}},{"type":"Feature","geometry":{"type":"Point","coordinates":[6.9743052,50.936893]},"properties":{"name":"Sion Bräues","kategorie":"Kneipe","amenity":"pub","bestaetigt":true,"adresse":"Deutzer Freiheit 85-87","website":"https://traditionsbrauhaus.de/"}},{"type":"Feature","geometry":{"type":"Point","coordinates":[6.9745487,50.9366928]},"properties":{"name":"Oh my Greece","kategorie":"Imbiss","amenity":"fast_food","bestaetigt":false,"adresse":"Deutzer Freiheit 82","website":null}},{"type":"Feature","geometry":{"type":"Point","coordinates":[6.986284,50.9358623]},"properties":{"name":"Curry 23","kategorie":"Imbiss","amenity":"fast_food","bestaetigt":true,"adresse":"Reitweg 2-4","website":"https://curry-23.de/contact"}},{"type":"Feature","geometry":{"type":"Point","coordinates":[6.9805008,50.9503873]},"properties":{"name":"Eau de Cologne","kategorie":"Restaurant","amenity":"restaurant","bestaetigt":false,"adresse":null,"website":"https://www.claudius-therme.de/tischreservierung-eau-de-cologne/"}},{"type":"Feature","geometry":{"type":"Point","coordinates":[6.9623323,50.9386157]},"properties":{"name":"Eiscafé FroYo","kategorie":"Café","amenity":"cafe","bestaetigt":false,"adresse":null,"website":null}},{"type":"Feature","geometry":{"type":"Point","coordinates":[6.9645967,50.9318902]},"properties":{"name":"Chocolat Grand Café","kategorie":"Café","amenity":"cafe","bestaetigt":true,"adresse":"Am Schokoladenmuseum 1a","website":"https://www.schokoladenmuseum.de/entdecken-erleben/chocolat-grand-cafe"}},{"type":"Feature","geometry":{"type":"Point","coordinates":[6.9817275,50.9425631]},"properties":{"name":"Düx","kategorie":"Restaurant","amenity":"restaurant","bestaetigt":false,"adresse":null,"website":"https://hotel-koeln-messe.dorint.com/de/restaurants/bierstube-und-restaurant-duex/"}},{"type":"Feature","geometry":{"type":"Point","coordinates":[6.9769278,50.9371371]},"properties":{"name":"Düxer Chicken","kategorie":"Imbiss","amenity":"fast_food","bestaetigt":true,"adresse":"Graf-Geßler-Straße 2","website":null}},{"type":"Feature","geometry":{"type":"Point","coordinates":[6.97736,50.9390112]},"properties":{"name":"Sushi-Haus Deutz","kategorie":"Restaurant","amenity":"restaurant","bestaetigt":false,"adresse":"Von-Sandt-Platz 12","website":"https://www.sushihauskoeln.de/"}},{"type":"Feature","geometry":{"type":"Point","coordinates":[6.9815059,50.9386556]},"properties":{"name":"Henkelmännchen","kategorie":"Restaurant","amenity":"restaurant","bestaetigt":false,"adresse":null,"website":"https://www.lanxess-arena.de/gastronomie/unsere-restaurants/henkelmaennchen.html"}},{"type":"Feature","geometry":{"type":"Point","coordinates":[6.9657729,50.9497935]},"properties":{"name":"Curios","kategorie":"Café","amenity":"cafe","bestaetigt":false,"adresse":null,"website":null}},{"type":"Feature","geometry":{"type":"Point","coordinates":[6.9739291,50.9405176]},"properties":{"name":"Deutzer Brauhaus","kategorie":"Restaurant","amenity":"restaurant","bestaetigt":true,"adresse":"Ottoplatz 7","website":"https://www.deutzerbrauhaus.de/"}},{"type":"Feature","geometry":{"type":"Point","coordinates":[6.9697506,50.9370787]},"properties":{"name":"bona'me","kategorie":"Restaurant","amenity":"restaurant","bestaetigt":true,"adresse":"Kennedyplatz 2","website":"https://bona-me.de/koeln-deutz-boname/"}},{"type":"Feature","geometry":{"type":"Point","coordinates":[6.9778685,50.9384113]},"properties":{"name":"Döner & Pizza","kategorie":"Imbiss","amenity":"fast_food","bestaetigt":false,"adresse":"Justinianstraße","website":null}},{"type":"Feature","geometry":{"type":"Point","coordinates":[6.9806794,50.9329133]},"properties":{"name":"Café Lichthof","kategorie":"Restaurant","amenity":"restaurant","bestaetigt":false,"adresse":null,"website":null}},{"type":"Feature","geometry":{"type":"Point","coordinates":[6.9843743,50.9409356]},"properties":{"name":"DB Casino","kategorie":"Restaurant","amenity":"restaurant","bestaetigt":true,"adresse":null,"website":null}},{"type":"Feature","geometry":{"type":"Point","coordinates":[6.9693296,50.9406932]},"properties":{"name":"Legends Bar","kategorie":"Café","amenity":"cafe","bestaetigt":false,"adresse":null,"website":null}},{"type":"Feature","geometry":{"type":"Point","coordinates":[6.9775998,50.9371008]},"properties":{"name":"Freiheit","kategorie":"Kneipe","amenity":"pub","bestaetigt":false,"adresse":"Justinianstraße 1","website":null}},{"type":"Feature","geometry":{"type":"Point","coordinates":[6.9645617,50.9313856]},"properties":{"name":"[RH]EINWURF","kategorie":"Restaurant","amenity":"restaurant","bestaetigt":false,"adresse":null,"website":null}},{"type":"Feature","geometry":{"type":"Point","coordinates":[6.9765352,50.9370015]},"properties":{"name":"Em Bierstüffge","kategorie":"Kneipe","amenity":"pub","bestaetigt":false,"adresse":"Graf-Geßler-Straße 1","website":"https://www.em-bierstueffge.de/"}},{"type":"Feature","geometry":{"type":"Point","coordinates":[6.9692669,50.9406575]},"properties":{"name":"Hyatt Regency","kategorie":"Bar","amenity":"bar","bestaetigt":true,"adresse":null,"website":null}},{"type":"Feature","geometry":{"type":"Point","coordinates":[6.9700332,50.9459712]},"properties":{"name":"Rheinterrassen","kategorie":"Biergarten","amenity":"biergarten","bestaetigt":false,"adresse":null,"website":"https://www.rheinterrassen.eu/"}},{"type":"Feature","geometry":{"type":"Point","coordinates":[6.9658181,50.9533529]},"properties":{"name":"Gruber's Restaurant","kategorie":"Restaurant","amenity":"restaurant","bestaetigt":true,"adresse":null,"website":"https://www.grubersrestaurant.de/"}},{"type":"Feature","geometry":{"type":"Point","coordinates":[6.9718451,50.9382907]},"properties":{"name":"Min Cuisine asiatique & bar","kategorie":"Restaurant","amenity":"restaurant","bestaetigt":false,"adresse":"Mindener Straße 4","website":"https://www.min-cuisine-asiatiquebar.de/"}},{"type":"Feature","geometry":{"type":"Point","coordinates":[6.9735815,50.9366867]},"properties":{"name":"Kaffebar","kategorie":"Café","amenity":"cafe","bestaetigt":false,"adresse":null,"website":"https://kaffeebar.metro.bar/?lang=de"}},{"type":"Feature","geometry":{"type":"Point","coordinates":[6.977791,50.9381055]},"properties":{"name":"CoffeeIn","kategorie":"Café","amenity":"cafe","bestaetigt":false,"adresse":"Justinianstraße 11","website":null}},{"type":"Feature","geometry":{"type":"Point","coordinates":[6.9757799,50.9393835]},"properties":{"name":"Constantin Pub","kategorie":"Kneipe","amenity":"pub","bestaetigt":false,"adresse":"Constantinstraße 78","website":null}},{"type":"Feature","geometry":{"type":"Point","coordinates":[6.9775574,50.936682]},"properties":{"name":"Eiscafe Candy","kategorie":"Café","amenity":"cafe","bestaetigt":true,"adresse":"Gotenring 2","website":"http://www.eiscafecandy.de/"}},{"type":"Feature","geometry":{"type":"Point","coordinates":[6.9770838,50.9370626]},"properties":{"name":"Düxer Grill","kategorie":"Imbiss","amenity":"fast_food","bestaetigt":false,"adresse":"Graf-Geßler-Straße 2","website":"https://www.duexergrill.de/"}},{"type":"Feature","geometry":{"type":"Point","coordinates":[6.9734633,50.9364443]},"properties":{"name":"Fischwerk","kategorie":"Imbiss","amenity":"fast_food","bestaetigt":false,"adresse":"Tempelstraße 7","website":"https://www.fisch-werk.de/"}},{"type":"Feature","geometry":{"type":"Point","coordinates":[6.973968,50.9366984]},"properties":{"name":"Heimisch Kaffee & Regionales","kategorie":"Café","amenity":"cafe","bestaetigt":false,"adresse":"Deutzer Freiheit 72-74","website":"https://www.heimisch.cafe/"}},{"type":"Feature","geometry":{"type":"Point","coordinates":[6.9734531,50.9366865]},"properties":{"name":"Nuvola Napoli","kategorie":"Restaurant","amenity":"restaurant","bestaetigt":false,"adresse":"Deutzer Freiheit 66a","website":"https://www.nuvolanapoli.de"}},{"type":"Feature","geometry":{"type":"Point","coordinates":[6.9742449,50.9366936]},"properties":{"name":"Eiscafé & Pizzeria Cortina","kategorie":"Café","amenity":"cafe","bestaetigt":false,"adresse":"Deutzer Freiheit 78","website":"https://www.koeln-deutz.de/eiscafe-cortina"}},{"type":"Feature","geometry":{"type":"Point","coordinates":[6.9762151,50.9368009]},"properties":{"name":"Schäl Sick Express","kategorie":"Imbiss","amenity":"fast_food","bestaetigt":false,"adresse":"Deutzer Freiheit 104","website":null}},{"type":"Feature","geometry":{"type":"Point","coordinates":[6.9786722,50.9385727]},"properties":{"name":"Bon Frites","kategorie":"Imbiss","amenity":"fast_food","bestaetigt":true,"adresse":"Justinianstraße 16","website":"http://www.bonfrites.nl"}},{"type":"Feature","geometry":{"type":"Point","coordinates":[6.9709673,50.9343012]},"properties":{"name":"Wasabifun (Sushi, Asianfusion, Wine)","kategorie":"Restaurant","amenity":"restaurant","bestaetigt":false,"adresse":"Siegburger Straße 81","website":"https://www.wasabifun-koeln.de/"}},{"type":"Feature","geometry":{"type":"Point","coordinates":[6.9711979,50.9358378]},"properties":{"name":"Rhein Döner","kategorie":"Imbiss","amenity":"fast_food","bestaetigt":false,"adresse":"Siegburger Straße 25-27","website":null}},{"type":"Feature","geometry":{"type":"Point","coordinates":[6.9750551,50.9382098]},"properties":{"name":"Haus Zeyen","kategorie":"Restaurant","amenity":"restaurant","bestaetigt":true,"adresse":"Neuhöfferstraße 27-29","website":"https://gaststaette-zeyen.de/"}},{"type":"Feature","geometry":{"type":"Point","coordinates":[6.9740403,50.936642]},"properties":{"name":"Pizzeria Diana","kategorie":"Restaurant","amenity":"restaurant","bestaetigt":true,"adresse":"Deutzer Freiheit 72","website":"https://pizza-diana.de"}},{"type":"Feature","geometry":{"type":"Point","coordinates":[6.970363,50.945818]},"properties":{"name":"Tanzbrunnen Köln","kategorie":"Biergarten","amenity":"biergarten","bestaetigt":false,"adresse":"Rheinparkweg 1","website":"http://koelnkongress.de/de/locations/tanzbrunnen-koeln.html"}},{"type":"Feature","geometry":{"type":"Point","coordinates":[6.9709617,50.9340812]},"properties":{"name":"Partyraum Köln","kategorie":"Bar","amenity":"nightclub","bestaetigt":true,"adresse":"Siegburger Straße 91","website":"https://www.partyraumkoeln.de"}},{"type":"Feature","geometry":{"type":"Point","coordinates":[6.9732572,50.9349427]},"properties":{"name":"Bürger’z","kategorie":"Restaurant","amenity":"restaurant","bestaetigt":true,"adresse":"Tempelstraße 41-43","website":"http://www.buergerz-deutz.de"}},{"type":"Feature","geometry":{"type":"Point","coordinates":[6.9641304,50.9311682]},"properties":{"name":"L'Osteria","kategorie":"Restaurant","amenity":"restaurant","bestaetigt":false,"adresse":"Im Zollhafen 2-4","website":null}},{"type":"Feature","geometry":{"type":"Point","coordinates":[6.9775344,50.9358644]},"properties":{"name":"Eiscafe Coltamai","kategorie":"Eisdiele","amenity":"ice_cream","bestaetigt":true,"adresse":"Gotenring 14","website":null}},{"type":"Feature","geometry":{"type":"Point","coordinates":[6.9772941,50.9360326]},"properties":{"name":"Et Manus","kategorie":"Imbiss","amenity":"fast_food","bestaetigt":true,"adresse":"Reischplatz 20","website":null}},{"type":"Feature","geometry":{"type":"Point","coordinates":[6.9974414,50.9299384]},"properties":{"name":"Pizzeria Da Salvo","kategorie":"Imbiss","amenity":"fast_food","bestaetigt":false,"adresse":"Gremberger Straße 41","website":null}},{"type":"Feature","geometry":{"type":"Point","coordinates":[6.9756933,50.9369261]},"properties":{"name":"Supasalad","kategorie":"Restaurant","amenity":"restaurant","bestaetigt":false,"adresse":"Deutzer Freiheit 101","website":"https://supasalad.de"}},{"type":"Feature","geometry":{"type":"Point","coordinates":[6.9763357,50.9331027]},"properties":{"name":"Café Kram","kategorie":"Kneipe","amenity":"pub","bestaetigt":false,"adresse":null,"website":null}},{"type":"Feature","geometry":{"type":"Point","coordinates":[6.9715483,50.9428857]},"properties":{"name":"The Coffice","kategorie":"Café","amenity":"cafe","bestaetigt":true,"adresse":"Charles-de-Gaulle-Platz 1d","website":"https://thecoffice.de"}},{"type":"Feature","geometry":{"type":"Point","coordinates":[6.9754016,50.9419055]},"properties":{"name":"L'Osteria","kategorie":"Restaurant","amenity":"restaurant","bestaetigt":true,"adresse":"Hans-Imhoff-Straße 4","website":"https://losteria.net/de/restaurants/restaurant/koeln-deutz/"}},{"type":"Feature","geometry":{"type":"Point","coordinates":[6.9919696,50.9573671]},"properties":{"name":"Anker7","kategorie":"Café","amenity":"cafe","bestaetigt":true,"adresse":"Hafenstraße 7","website":"https://www.anker7-koeln.de/"}},{"type":"Feature","geometry":{"type":"Point","coordinates":[6.9763743,50.9368046]},"properties":{"name":"Café Nova","kategorie":"Café","amenity":"cafe","bestaetigt":false,"adresse":"Deutzer Freiheit 106","website":"https://cafe-nova-koeln.de/standorte/cafe-nova-koeln-deutzer-freiheit/"}},{"type":"Feature","geometry":{"type":"Point","coordinates":[6.99674,50.9301827]},"properties":{"name":"Café De Rone","kategorie":"Café","amenity":"cafe","bestaetigt":true,"adresse":null,"website":null}},{"type":"Feature","geometry":{"type":"Point","coordinates":[6.9950002,50.9305261]},"properties":{"name":"Dolce Gelato Marinetti","kategorie":"Eisdiele","amenity":"ice_cream","bestaetigt":false,"adresse":"Gremberger Straße 26","website":null}},{"type":"Feature","geometry":{"type":"Point","coordinates":[6.9699334,50.9450967]},"properties":{"name":"Kiosk","kategorie":"Eisdiele","amenity":"ice_cream","bestaetigt":true,"adresse":null,"website":null}},{"type":"Feature","geometry":{"type":"Point","coordinates":[6.9721891,50.9401093]},"properties":{"name":"KölnSKY","kategorie":"Restaurant","amenity":"restaurant","bestaetigt":false,"adresse":"Ottoplatz 1","website":"https://koelnsky.com"}},{"type":"Feature","geometry":{"type":"Point","coordinates":[6.9920522,50.9365107]},"properties":{"name":"Saman Restaurant","kategorie":"Restaurant","amenity":"restaurant","bestaetigt":false,"adresse":"Deutz-Kalker Straße 142","website":"https://www.saman-restaurant.com/"}},{"type":"Feature","geometry":{"type":"Point","coordinates":[6.9938876,50.9575204]},"properties":{"name":"Radix & Anima","kategorie":"Café","amenity":"cafe","bestaetigt":false,"adresse":"Deutz-Mülheimer Straße 183","website":"https://www.radixundanima.de/"}},{"type":"Feature","geometry":{"type":"Point","coordinates":[6.9688065,50.9401681]},"properties":{"name":"Sticky Fingers","kategorie":"Restaurant","amenity":"restaurant","bestaetigt":false,"adresse":"Kennedy-Ufer 2-A","website":"https://www.stickyfingers-restaurant.de"}},{"type":"Feature","geometry":{"type":"Point","coordinates":[6.96618,50.9552003]},"properties":{"name":"Zur letzten Instanz","kategorie":"Kneipe","amenity":"pub","bestaetigt":false,"adresse":null,"website":null}},{"type":"Feature","geometry":{"type":"Point","coordinates":[6.9636387,50.9327112]},"properties":{"name":"Hafenterrasse am Malakoffturm","kategorie":"Bar","amenity":"bar","bestaetigt":false,"adresse":null,"website":"https://www.biergartenkoeln.de/biergarten-uebersicht/koeln-neustadt-sued/hafenterasse/"}},{"type":"Feature","geometry":{"type":"Point","coordinates":[6.9754297,50.9360531]},"properties":{"name":"Rhein Street Coffee","kategorie":"Café","amenity":"cafe","bestaetigt":false,"adresse":"Luisenstraße 10","website":null}},{"type":"Feature","geometry":{"type":"Point","coordinates":[6.9978768,50.9372849]},"properties":{"name":"Da Enzo","kategorie":"Restaurant","amenity":"restaurant","bestaetigt":true,"adresse":"Kalker Hauptstraße 66","website":null}},{"type":"Feature","geometry":{"type":"Point","coordinates":[6.9791184,50.951358]},"properties":{"name":"Rosencafé","kategorie":"Café","amenity":"cafe","bestaetigt":false,"adresse":null,"website":null}},{"type":"Feature","geometry":{"type":"Point","coordinates":[6.9803961,50.9505094]},"properties":{"name":"Baderestaurant","kategorie":"Restaurant","amenity":"restaurant","bestaetigt":false,"adresse":null,"website":"https://www.claudius-therme.de/gastronomie/"}},{"type":"Feature","geometry":{"type":"Point","coordinates":[6.9977841,50.9350121]},"properties":{"name":"Palmen Grill","kategorie":"Imbiss","amenity":"fast_food","bestaetigt":false,"adresse":null,"website":null}},{"type":"Feature","geometry":{"type":"Point","coordinates":[6.9625129,50.9369928]},"properties":{"name":"Belle Tehran","kategorie":"Restaurant","amenity":"restaurant","bestaetigt":false,"adresse":"Buttermarkt 8","website":null}},{"type":"Feature","geometry":{"type":"Point","coordinates":[6.9947957,50.937404]},"properties":{"name":"Imbiss","kategorie":"Imbiss","amenity":"fast_food","bestaetigt":false,"adresse":null,"website":null}},{"type":"Feature","geometry":{"type":"Point","coordinates":[6.9957668,50.9434538]},"properties":{"name":"Café","kategorie":"Café","amenity":"cafe","bestaetigt":false,"adresse":null,"website":null}},{"type":"Feature","geometry":{"type":"Point","coordinates":[6.9979708,50.937307]},"properties":{"name":"Damla","kategorie":"Café","amenity":"cafe","bestaetigt":false,"adresse":"Kalker Hauptstraße 68","website":null}},{"type":"Feature","geometry":{"type":"Point","coordinates":[6.9944807,50.9306738]},"properties":{"name":"Efulim","kategorie":"Café","amenity":"cafe","bestaetigt":false,"adresse":"Gremberger Straße 20","website":null}},{"type":"Feature","geometry":{"type":"Point","coordinates":[6.9637355,50.9541473]},"properties":{"name":"Roni's","kategorie":"Imbiss","amenity":"fast_food","bestaetigt":false,"adresse":"Merlostraße 2","website":"https://www.instagram.com/roniskoeln/"}},{"type":"Feature","geometry":{"type":"Point","coordinates":[6.9695875,50.9403843]},"properties":{"name":"Hyatt Regency Cologne","kategorie":"Andere","amenity":"","bestaetigt":true,"adresse":"Kennedy-Ufer 2a","website":"https://www.hyatt.com/hyatt-regency/en-US/colog-hyatt-regency-cologne"}},{"type":"Feature","geometry":{"type":"Point","coordinates":[6.9752318,50.9479797]},"properties":{"name":"Park-Café","kategorie":"Café","amenity":"cafe","bestaetigt":true,"adresse":"Auenweg 17","website":"https://parkcafe.koeln/"}},{"type":"Feature","geometry":{"type":"Point","coordinates":[6.9676982,50.9564077]},"properties":{"name":"Weinmuseum","kategorie":"Restaurant","amenity":"restaurant","bestaetigt":false,"adresse":"Amsterdamer Straße 1","website":"https://www.weinmuseum.org/"}},{"type":"Feature","geometry":{"type":"Point","coordinates":[6.9707469,50.9467527]},"properties":{"name":"km 689 Cologne Beach Club","kategorie":"Café","amenity":"cafe","bestaetigt":false,"adresse":null,"website":"https://www.km689.de/"}},{"type":"Feature","geometry":{"type":"Point","coordinates":[6.9726187,50.955607]},"properties":{"name":"Richters","kategorie":"Restaurant","amenity":"restaurant","bestaetigt":false,"adresse":"Konrad-Adenauer-Ufer 115","website":"https://www.richters-koeln.de/"}},{"type":"Feature","geometry":{"type":"Point","coordinates":[6.9700646,50.9458578]},"properties":{"name":"Rheinterrassen","kategorie":"Restaurant","amenity":"restaurant","bestaetigt":true,"adresse":"Rheinparkweg 1","website":"https://www.rheinterrassen.eu/"}},{"type":"Feature","geometry":{"type":"Point","coordinates":[6.9941823,50.9428861]},"properties":{"name":"McDonald's","kategorie":"Imbiss","amenity":"fast_food","bestaetigt":true,"adresse":"Istanbulstraße 1","website":null}},{"type":"Feature","geometry":{"type":"Point","coordinates":[6.9679871,50.9556925]},"properties":{"name":"Steakhaus La Casona","kategorie":"Restaurant","amenity":"restaurant","bestaetigt":false,"adresse":"Riehler Straße 105","website":"http://www.steakhaus-lacasona.de/"}},{"type":"Feature","geometry":{"type":"Point","coordinates":[6.9917679,50.9571609]},"properties":{"name":"Lokschuppen","kategorie":"Restaurant","amenity":"restaurant","bestaetigt":false,"adresse":"Hafenstraße 7","website":"https://lokschuppen-köln.de/"}},{"type":"Feature","geometry":{"type":"Point","coordinates":[6.9797605,50.9507895]},"properties":{"name":"Bar","kategorie":"Bar","amenity":"bar","bestaetigt":false,"adresse":null,"website":null}},{"type":"Feature","geometry":{"type":"Point","coordinates":[6.9688345,50.9406435]},"properties":{"name":"Grissini","kategorie":"Restaurant","amenity":"restaurant","bestaetigt":true,"adresse":null,"website":"https://www.grissini-restaurant.de/"}},{"type":"Feature","geometry":{"type":"Point","coordinates":[6.9856891,50.9366202]},"properties":{"name":"PanAmore","kategorie":"Imbiss","amenity":"fast_food","bestaetigt":false,"adresse":null,"website":null}},{"type":"Feature","geometry":{"type":"Point","coordinates":[6.9771927,50.9414942]},"properties":{"name":"The Ash","kategorie":"Restaurant","amenity":"restaurant","bestaetigt":false,"adresse":"Luise-Straus-Ernst-Straße 4","website":"https://ash-steakhouse.de/restaurants/koeln-messecity/"}},{"type":"Feature","geometry":{"type":"Point","coordinates":[6.9827256,50.9478093]},"properties":{"name":"Self-Restaurant Curie","kategorie":"Restaurant","amenity":"restaurant","bestaetigt":false,"adresse":null,"website":null}}]}